NUSAT-49 (KLARA DAN VO*)
1 60500U 24149AJ  26068.79810190  .00012912  00000+0  43568-3 0  9991
2 60500  97.3807 150.7380 0001132 286.7761  73.3356 15.30828857 86935
STARLINK-35478          
1 65917U 25225H   26068.53878065  .00014921  00000+0  51504-3 0  9992
2 65917  53.1592 166.4758 0001108  90.5300 269.5828 15.30189610 24380
