[{"OBJECT_NAME":"NUSAT-49 (KLARA DAN VON NEUMANN)","OBJECT_ID":"2024-149AJ","EPOCH":"2026-03-09T19:09:16.004160","MEAN_MOTION":15.30828857,"ECCENTRICITY":0.00011321,"INCLINATION":97.3807,"RA_OF_ASC_NODE":150.738,"ARG_OF_PERICENTER":286.7761,"MEAN_ANOMALY":73.3356,"EPHEMERIS_TYPE":0,"CLASSIFICATION_TYPE":"U","NORAD_CAT_ID":60500,"ELEMENT_SET_NO":999,"REV_AT_EPOCH":8693,"BSTAR":0.00043568345,"MEAN_MOTION_DOT":0.00012912,"MEAN_MOTION_DDOT":0},{"OBJECT_NAME":"STARLINK-35478","OBJECT_ID":"2025-225H","EPOCH":"2026-03-09T12:55:50.648160","MEAN_MOTION":15.3018961,"ECCENTRICITY":0.0001108,"INCLINATION":53.1592,"RA_OF_ASC_NODE":166.4758,"ARG_OF_PERICENTER":90.53,"MEAN_ANOMALY":269.5828,"EPHEMERIS_TYPE":0,"CLASSIFICATION_TYPE":"U","NORAD_CAT_ID":65917,"ELEMENT_SET_NO":999,"REV_AT_EPOCH":2438,"BSTAR":0.00051504225,"MEAN_MOTION_DOT":0.00014921,"MEAN_MOTION_DDOT":0}]
